CCSDS_OMM_VERS = 2.0
CREATION_DATE  = 
ORIGINATOR     = 

OBJECT_NAME    = STARLINK-36128
OBJECT_ID      = 2025-281AB
CENTER_NAME    = EARTH
REF_FRAME      = TEME
TIME_SYSTEM    = UTC
MEAN_ELEMENT_THEORY = SGP/SGP4

EPOCH          = 2025-12-10T18:00:02.000160
MEAN_MOTION    = 15.97195544
ECCENTRICITY   = .0001713
INCLINATION    = 43.0015
RA_OF_ASC_NODE = 134.6311
ARG_OF_PERICENTER = 272.8425
MEAN_ANOMALY   = 34.4024

EPHEMERIS_TYPE = 0
CLASSIFICATION_TYPE = U
NORAD_CAT_ID   = 66873
ELEMENT_SET_NO = 999
REV_AT_EPOCH   = 242
BSTAR          = -.27664E-2
MEAN_MOTION_DOT = -.1256354E-1
MEAN_MOTION_DDOT = .483E-3

CCSDS_OMM_VERS = 2.0
CREATION_DATE  = 
ORIGINATOR     = 

OBJECT_NAME    = STARLINK-36129
OBJECT_ID      = 2025-281AC
CENTER_NAME    = EARTH
REF_FRAME      = TEME
TIME_SYSTEM    = UTC
MEAN_ELEMENT_THEORY = SGP/SGP4

EPOCH          = 2025-12-10T18:00:02.000160
MEAN_MOTION    = 15.97038594
ECCENTRICITY   = .0001722
INCLINATION    = 43.0018
RA_OF_ASC_NODE = 134.6426
ARG_OF_PERICENTER = 273.4070
MEAN_ANOMALY   = 29.3953

EPHEMERIS_TYPE = 0
CLASSIFICATION_TYPE = U
NORAD_CAT_ID   = 66874
ELEMENT_SET_NO = 999
REV_AT_EPOCH   = 247
BSTAR          = -.27677E-2
MEAN_MOTION_DOT = -.1246183E-1
MEAN_MOTION_DDOT = .4751E-3

CCSDS_OMM_VERS = 2.0
CREATION_DATE  = 
ORIGINATOR     = 

OBJECT_NAME    = STARLINK-36053
OBJECT_ID      = 2025-281AD
CENTER_NAME    = EARTH
REF_FRAME      = TEME
TIME_SYSTEM    = UTC
MEAN_ELEMENT_THEORY = SGP/SGP4

EPOCH          = 2025-12-10T18:00:02.000160
MEAN_MOTION    = 15.97277493
ECCENTRICITY   = .0001692
INCLINATION    = 43.0017
RA_OF_ASC_NODE = 134.6244
ARG_OF_PERICENTER = 274.4156
MEAN_ANOMALY   = 35.2421

EPHEMERIS_TYPE = 0
CLASSIFICATION_TYPE = U
NORAD_CAT_ID   = 66875
ELEMENT_SET_NO = 999
REV_AT_EPOCH   = 242
BSTAR          = -.27453E-2
MEAN_MOTION_DOT = -.1252507E-1
MEAN_MOTION_DDOT = .4807E-3

CCSDS_OMM_VERS = 2.0
CREATION_DATE  = 
ORIGINATOR     = 

OBJECT_NAME    = STARLINK-35702
OBJECT_ID      = 2025-281AE
CENTER_NAME    = EARTH
REF_FRAME      = TEME
TIME_SYSTEM    = UTC
MEAN_ELEMENT_THEORY = SGP/SGP4

EPOCH          = 2025-12-10T18:00:02.000160
MEAN_MOTION    = 15.97131878
ECCENTRICITY   = .0001742
INCLINATION    = 43.0020
RA_OF_ASC_NODE = 134.6356
ARG_OF_PERICENTER = 276.3063
MEAN_ANOMALY   = 29.2605

EPHEMERIS_TYPE = 0
CLASSIFICATION_TYPE = U
NORAD_CAT_ID   = 66876
ELEMENT_SET_NO = 999
REV_AT_EPOCH   = 247
BSTAR          = -.27497E-2
MEAN_MOTION_DOT = -.1244535E-1
MEAN_MOTION_DDOT = .47441E-3

CCSDS_OMM_VERS = 2.0
CREATION_DATE  = 
ORIGINATOR     = 

OBJECT_NAME    = ZQ-3 R/B
OBJECT_ID      = 2025-282A
CENTER_NAME    = EARTH
REF_FRAME      = TEME
TIME_SYSTEM    = UTC
MEAN_ELEMENT_THEORY = SGP/SGP4

EPOCH          = 2025-12-11T15:34:54.456096
MEAN_MOTION    = 14.56097159
ECCENTRICITY   = .07931712
INCLINATION    = 56.9524
RA_OF_ASC_NODE = 61.8427
ARG_OF_PERICENTER = 218.0596
MEAN_ANOMALY   = 136.1784

EPHEMERIS_TYPE = 0
CLASSIFICATION_TYPE = U
NORAD_CAT_ID   = 66877
ELEMENT_SET_NO = 999
REV_AT_EPOCH   = 123
BSTAR          = .2423616E-3
MEAN_MOTION_DOT = .1188538E-1
MEAN_MOTION_DDOT = .7424357E-5

CCSDS_OMM_VERS = 2.0
CREATION_DATE  = 
ORIGINATOR     = 

OBJECT_NAME    = 1998-067XS
OBJECT_ID      = 1998-067XS
CENTER_NAME    = EARTH
REF_FRAME      = TEME
TIME_SYSTEM    = UTC
MEAN_ELEMENT_THEORY = SGP/SGP4

EPOCH          = 2025-12-11T19:50:50.396352
MEAN_MOTION    = 15.50491702
ECCENTRICITY   = .00036759
INCLINATION    = 51.6297
RA_OF_ASC_NODE = 146.9447
ARG_OF_PERICENTER = 198.3211
MEAN_ANOMALY   = 161.7647

EPHEMERIS_TYPE = 0
CLASSIFICATION_TYPE = U
NORAD_CAT_ID   = 66906
ELEMENT_SET_NO = 999
REV_AT_EPOCH   = 147
BSTAR          = .60264305E-3
MEAN_MOTION_DOT = .34698E-3
MEAN_MOTION_DDOT = 0

CCSDS_OMM_VERS = 2.0
CREATION_DATE  = 
ORIGINATOR     = 

OBJECT_NAME    = 1998-067XT
OBJECT_ID      = 1998-067XT
CENTER_NAME    = EARTH
REF_FRAME      = TEME
TIME_SYSTEM    = UTC
MEAN_ELEMENT_THEORY = SGP/SGP4

EPOCH          = 2025-12-09T12:07:37.114752
MEAN_MOTION    = 15.50864429
ECCENTRICITY   = .00048036
INCLINATION    = 51.6307
RA_OF_ASC_NODE = 158.4423
ARG_OF_PERICENTER = 208.5081
MEAN_ANOMALY   = 151.5646

EPHEMERIS_TYPE = 0
CLASSIFICATION_TYPE = U
NORAD_CAT_ID   = 66907
ELEMENT_SET_NO = 999
REV_AT_EPOCH   = 111
BSTAR          = .12921241E-2
MEAN_MOTION_DOT = .76342E-3
MEAN_MOTION_DDOT = 0

CCSDS_OMM_VERS = 2.0
CREATION_DATE  = 
ORIGINATOR     = 

OBJECT_NAME    = 1998-067XU
OBJECT_ID      = 1998-067XU
CENTER_NAME    = EARTH
REF_FRAME      = TEME
TIME_SYSTEM    = UTC
MEAN_ELEMENT_THEORY = SGP/SGP4

EPOCH          = 2025-12-11T19:47:12.664032
MEAN_MOTION    = 15.51346926
ECCENTRICITY   = .00046963
INCLINATION    = 51.6299
RA_OF_ASC_NODE = 146.9280
ARG_OF_PERICENTER = 220.0254
MEAN_ANOMALY   = 140.0390

EPHEMERIS_TYPE = 0
CLASSIFICATION_TYPE = U
NORAD_CAT_ID   = 66908
ELEMENT_SET_NO = 999
REV_AT_EPOCH   = 147
BSTAR          = .13269788E-2
MEAN_MOTION_DOT = .79814E-3
MEAN_MOTION_DDOT = 0

CCSDS_OMM_VERS = 2.0
CREATION_DATE  = 
ORIGINATOR     = 

OBJECT_NAME    = SILVERSAT
OBJECT_ID      = 1998-067XV
CENTER_NAME    = EARTH
REF_FRAME      = TEME
TIME_SYSTEM    = UTC
MEAN_ELEMENT_THEORY = SGP/SGP4

EPOCH          = 2025-12-11T19:46:46.158240
MEAN_MOTION    = 15.51450033
ECCENTRICITY   = .00045562
INCLINATION    = 51.6300
RA_OF_ASC_NODE = 146.9260
ARG_OF_PERICENTER = 222.0234
MEAN_ANOMALY   = 138.0406

EPHEMERIS_TYPE = 0
CLASSIFICATION_TYPE = U
NORAD_CAT_ID   = 66909
ELEMENT_SET_NO = 999
REV_AT_EPOCH   = 147
BSTAR          = .13718352E-2
MEAN_MOTION_DOT = .82864E-3
MEAN_MOTION_DDOT = 0

CCSDS_OMM_VERS = 2.0
CREATION_DATE  = 
ORIGINATOR     = 

OBJECT_NAME    = 1998-067XW
OBJECT_ID      = 1998-067XW
CENTER_NAME    = EARTH
REF_FRAME      = TEME
TIME_SYSTEM    = UTC
MEAN_ELEMENT_THEORY = SGP/SGP4

EPOCH          = 2025-12-11T19:44:44.282400
MEAN_MOTION    = 15.51588385
ECCENTRICITY   = .0005376
INCLINATION    = 51.6301
RA_OF_ASC_NODE = 146.9170
ARG_OF_PERICENTER = 203.4285
MEAN_ANOMALY   = 156.6460

EPHEMERIS_TYPE = 0
CLASSIFICATION_TYPE = U
NORAD_CAT_ID   = 66910
ELEMENT_SET_NO = 999
REV_AT_EPOCH   = 147
BSTAR          = .11426696E-2
MEAN_MOTION_DOT = .69176E-3
MEAN_MOTION_DDOT = 0

CCSDS_OMM_VERS = 2.0
CREATION_DATE  = 
ORIGINATOR     = 

OBJECT_NAME    = 1998-067XX
OBJECT_ID      = 1998-067XX
CENTER_NAME    = EARTH
REF_FRAME      = TEME
TIME_SYSTEM    = UTC
MEAN_ELEMENT_THEORY = SGP/SGP4

EPOCH          = 2025-12-11T19:43:54.579072
MEAN_MOTION    = 15.51811503
ECCENTRICITY   = .00051158
INCLINATION    = 51.6297
RA_OF_ASC_NODE = 146.9125
ARG_OF_PERICENTER = 205.0916
MEAN_ANOMALY   = 154.9826

EPHEMERIS_TYPE = 0
CLASSIFICATION_TYPE = U
NORAD_CAT_ID   = 66911
ELEMENT_SET_NO = 999
REV_AT_EPOCH   = 146
BSTAR          = .13559752E-2
MEAN_MOTION_DOT = .8298E-3
MEAN_MOTION_DDOT = 0

CCSDS_OMM_VERS = 2.0
CREATION_DATE  = 
ORIGINATOR     = 

OBJECT_NAME    = 1998-067XY
OBJECT_ID      = 1998-067XY
CENTER_NAME    = EARTH
REF_FRAME      = TEME
TIME_SYSTEM    = UTC
MEAN_ELEMENT_THEORY = SGP/SGP4

EPOCH          = 2025-12-11T19:48:45.131904
MEAN_MOTION    = 15.51001955
ECCENTRICITY   = .00047052
INCLINATION    = 51.6304
RA_OF_ASC_NODE = 146.9360
ARG_OF_PERICENTER = 217.5082
MEAN_ANOMALY   = 142.5579

EPHEMERIS_TYPE = 0
CLASSIFICATION_TYPE = U
NORAD_CAT_ID   = 66912
ELEMENT_SET_NO = 999
REV_AT_EPOCH   = 146
BSTAR          = .99420433E-3
MEAN_MOTION_DOT = .5879E-3
MEAN_MOTION_DDOT = 0

